{"type": "FeatureCollection", "features": [ {"type": "Feature", "properties": {"norad_id": 61182, "name": "GSAT0232 (GALILEO 32)", "group": "gnss", "lat": 55.1294292549708, "lon": -48.75325004407985, "alt_km": 23218.294189150998, "timestamp": "2025-12-24T14:43:29.246211+00:00", "meta": {"OBJECT_NAME": "GSAT0232 (GALILEO 32)", "OBJECT_ID": "2024-167A", "EPOCH": "2025-12-24T00:50:29.347296", "MEAN_MOTION": 1.70473519, "ECCENTRICITY": 0.00018846, "INCLINATION": 55.2377, "RA_OF_ASC_NODE": 226.1209, "ARG_OF_PERICENTER": 202.8668, "MEAN_ANOMALY": 249.4196, "EPHEMERIS_TYPE": 0, "CLASSIFICATION_TYPE": "U", "NORAD_CAT_ID": 61182, "ELEMENT_SET_NO": 999, "REV_AT_EPOCH": 789, "BSTAR": 0, "MEAN_MOTION_DOT": 7.2e-07, "MEAN_MOTION_DDOT": 0}, "tle": {"line1": "1 61182U 24167A   25358.03506189  .00000072  00000+0  00000+0 0  9990", "line2": "2 61182  55.2377 226.1209 0001884 202.8668 249.4196  1.70473519  7890"}}, "geometry": {"type": "Point", "coordinates": [-48.75325004407985, 55.1294292549708]}}, {"type": "Feature", "properties": {"norad_id": 61183, "name": "GSAT0226 (GALILEO 31)", "group": "gnss", "lat": -16.263879267847543, "lon": 57.81307193456383, "alt_km": 23224.611183785422, "timestamp": "2025-12-24T14:43:29.246223+00:00", "meta": {"OBJECT_NAME": "GSAT0226 (GALILEO 31)", "OBJECT_ID": "2024-167B", "EPOCH": "2025-12-23T09:50:40.022880", "MEAN_MOTION": 1.70473667, "ECCENTRICITY": 0.00012164, "INCLINATION": 55.2365, "RA_OF_ASC_NODE": 226.1435, "ARG_OF_PERICENTER": 108.5259, "MEAN_ANOMALY": 72.9218, "EPHEMERIS_TYPE": 0, "CLASSIFICATION_TYPE": "U", "NORAD_CAT_ID": 61183, "ELEMENT_SET_NO": 999, "REV_AT_EPOCH": 785, "BSTAR": 0, "MEAN_MOTION_DOT": 7.3e-07, "MEAN_MOTION_DDOT": 0}, "tle": {"line1": "1 61183U 24167B   25357.41018545  .00000073  00000+0  00000+0 0  9997", "line2": "2 61183  55.2365 226.1435 0001216 108.5259  72.9218  1.70473667  7850"}}, "geometry": {"type": "Point", "coordinates": [57.81307193456383, -16.263879267847543]}}, {"type": "Feature", "properties": {"norad_id": 61186, "name": "BEIDOU-3 M25 (C47)", "group": "gnss", "lat": 34.79766475748122, "lon": 98.74706101236329, "alt_km": 21538.500365897424, "timestamp": "2025-12-24T14:43:29.246234+00:00", "meta": {"OBJECT_NAME": "BEIDOU-3 M25 (C47)", "OBJECT_ID": "2024-168B", "EPOCH": "2025-12-24T01:04:04.997856", "MEAN_MOTION": 1.86230087, "ECCENTRICITY": 0.0005428, "INCLINATION": 54.6321, "RA_OF_ASC_NODE": 308.3293, "ARG_OF_PERICENTER": 299.9145, "MEAN_ANOMALY": 174.1551, "EPHEMERIS_TYPE": 0, "CLASSIFICATION_TYPE": "U", "NORAD_CAT_ID": 61186, "ELEMENT_SET_NO": 999, "REV_AT_EPOCH": 852, "BSTAR": 0, "MEAN_MOTION_DOT": -5.3e-07, "MEAN_MOTION_DDOT": 0}, "tle": {"line1": "1 61186U 24168B   25358.04450229 -.00000053  00000+0  00000+0 0  9999", "line2": "2 61186  54.6321 308.3293 0005428 299.9145 174.1551  1.86230087  8525"}}, "geometry": {"type": "Point", "coordinates": [98.74706101236329, 34.79766475748122]}}, {"type": "Feature", "properties": {"norad_id": 61187, "name": "BEIDOU-3 M27 (C49)", "group": "gnss", "lat": -54.635072517051675, "lon": -140.8359109937521, "alt_km": 21531.601503414167, "timestamp": "2025-12-24T14:43:29.246247+00:00", "meta": {"OBJECT_NAME": "BEIDOU-3 M27 (C49)", "OBJECT_ID": "2024-168C", "EPOCH": "2025-12-24T07:03:52.725600", "MEAN_MOTION": 1.86230222, "ECCENTRICITY": 0.0002547, "INCLINATION": 54.6273, "RA_OF_ASC_NODE": 308.3043, "ARG_OF_PERICENTER": 341.1399, "MEAN_ANOMALY": 75.3953, "EPHEMERIS_TYPE": 0, "CLASSIFICATION_TYPE": "U", "NORAD_CAT_ID": 61187, "ELEMENT_SET_NO": 999, "REV_AT_EPOCH": 600, "BSTAR": 0, "MEAN_MOTION_DOT": -5.3e-07, "MEAN_MOTION_DDOT": 0}, "tle": {"line1": "1 61187U 24168C   25358.29436025 -.00000053  00000+0  00000+0 0  9995", "line2": "2 61187  54.6273 308.3043 0002547 341.1399  75.3953  1.86230222  6005"}}, "geometry": {"type": "Point", "coordinates": [-140.8359109937521, -54.635072517051675]}}, {"type": "Feature", "properties": {"norad_id": 62339, "name": "GPS BIII-7  (PRN 01)", "group": "gnss", "lat": -11.605030627378733, "lon": 169.54289138294567, "alt_km": 20213.556303599154, "timestamp": "2025-12-24T14:43:29.246258+00:00", "meta": {"OBJECT_NAME": "GPS BIII-7  (PRN 01)", "OBJECT_ID": "2024-242A", "EPOCH": "2025-12-22T12:02:33.556992", "MEAN_MOTION": 2.00568132, "ECCENTRICITY": 0.00128077, "INCLINATION": 54.9208, "RA_OF_ASC_NODE": 341.3454, "ARG_OF_PERICENTER": 346.2078, "MEAN_ANOMALY": 123.2241, "EPHEMERIS_TYPE": 0, "CLASSIFICATION_TYPE": "U", "NORAD_CAT_ID": 62339, "ELEMENT_SET_NO": 999, "REV_AT_EPOCH": 771, "BSTAR": 0, "MEAN_MOTION_DOT": -6.9e-07, "MEAN_MOTION_DDOT": 0}, "tle": {"line1": "1 62339U 24242A   25356.50177728 -.00000069  00000+0  00000+0 0  9999", "line2": "2 62339  54.9208 341.3454 0012807 346.2078 123.2241  2.00568132  7712"}}, "geometry": {"type": "Point", "coordinates": [169.54289138294567, -11.605030627378733]}}, {"type": "Feature", "properties": {"norad_id": 62850, "name": "NVS-02 (IRNSS-1K)", "group": "gnss", "lat": -3.6487064005832246, "lon": 152.9537278182297, "alt_km": 29017.018673542323, "timestamp": "2025-12-24T14:43:29.246272+00:00", "meta": {"OBJECT_NAME": "NVS-02 (IRNSS-1K)", "OBJECT_ID": "2025-020A", "EPOCH": "2025-12-23T02:48:28.612512", "MEAN_MOTION": 2.17602057, "ECCENTRICITY": 0.73473509, "INCLINATION": 20.9588, "RA_OF_ASC_NODE": 323.9017, "ARG_OF_PERICENTER": 32.9618, "MEAN_ANOMALY": 356.3768, "EPHEMERIS_TYPE": 0, "CLASSIFICATION_TYPE": "U", "NORAD_CAT_ID": 62850, "ELEMENT_SET_NO": 999, "REV_AT_EPOCH": 714, "BSTAR": 0.00026724694, "MEAN_MOTION_DOT": 1.47e-06, "MEAN_MOTION_DDOT": 0}, "tle": {"line1": "1 62850U 25020A   25357.11699783  .00000147  00000+0  26725-3 0  9992", "line2": "2 62850  20.9588 323.9017 7347350  32.9618 356.3768  2.17602057  7148"}}, "geometry": {"type": "Point", "coordinates": [152.9537278182297, -3.6487064005832246]}}, {"type": "Feature", "properties": {"norad_id": 62876, "name": "QZS-6 (QZSS/PRN 200)", "group": "gnss", "lat": -0.017107227713380725, "lon": 44.80964964299549, "alt_km": 35790.15702483024, "timestamp": "2025-12-24T14:43:29.246284+00:00", "meta": {"OBJECT_NAME": "QZS-6 (QZSS/PRN 200)", "OBJECT_ID": "2025-023A", "EPOCH": "2025-12-24T01:38:38.621184", "MEAN_MOTION": 1.00270969, "ECCENTRICITY": 0.00016111, "INCLINATION": 0.0566, "RA_OF_ASC_NODE": 73.1267, "ARG_OF_PERICENTER": 207.9024, "MEAN_ANOMALY": 287.0251, "EPHEMERIS_TYPE": 0, "CLASSIFICATION_TYPE": "U", "NORAD_CAT_ID": 62876, "ELEMENT_SET_NO": 999, "REV_AT_EPOCH": 320, "BSTAR": 0, "MEAN_MOTION_DOT": -2.12e-06, "MEAN_MOTION_DDOT": 0}, "tle": {"line1": "1 62876U 25023A   25358.06850256 -.00000212  00000+0  00000+0 0  9990", "line2": "2 62876   0.0566  73.1267 0001611 207.9024 287.0251  1.00270969  3201"}}, "geometry": {"type": "Point", "coordinates": [44.80964964299549, -0.017107227713380725]}}, {"type": "Feature", "properties": {"norad_id": 63130, "name": "COSMOS 2584 (704K)", "group": "gnss", "lat": 25.513659575253204, "lon": 91.61291523739798, "alt_km": 19146.37087106786, "timestamp": "2025-12-24T14:43:29.246296+00:00", "meta": {"OBJECT_NAME": "COSMOS 2584 (704K)", "OBJECT_ID": "2025-042A", "EPOCH": "2025-12-23T15:18:41.586912", "MEAN_MOTION": 2.13102998, "ECCENTRICITY": 0.00077597, "INCLINATION": 64.9817, "RA_OF_ASC_NODE": 78.7748, "ARG_OF_PERICENTER": 220.3621, "MEAN_ANOMALY": 139.628, "EPHEMERIS_TYPE": 0, "CLASSIFICATION_TYPE": "U", "NORAD_CAT_ID": 63130, "ELEMENT_SET_NO": 999, "REV_AT_EPOCH": 630, "BSTAR": 0, "MEAN_MOTION_DOT": 1e-08, "MEAN_MOTION_DDOT": 0}, "tle": {"line1": "1 63130U 25042A   25357.63798133  .00000001  00000+0  00000+0 0  9997", "line2": "2 63130  64.9817  78.7748 0007759 220.3621 139.6280  2.13102998  6308"}}, "geometry": {"type": "Point", "coordinates": [91.61291523739798, 25.513659575253204]}}, {"type": "Feature", "properties": {"norad_id": 64202, "name": "GPS BIII-8  (PRN 21)", "group": "gnss", "lat": 18.949542550573625, "lon": 52.03183657263903, "alt_km": 20175.77646427103, "timestamp": "2025-12-24T14:43:29.246307+00:00", "meta": {"OBJECT_NAME": "GPS BIII-8  (PRN 21)", "OBJECT_ID": "2025-116A", "EPOCH": "2025-12-24T05:06:23.734944", "MEAN_MOTION": 2.0055752, "ECCENTRICITY": 0.00059658, "INCLINATION": 55.1137, "RA_OF_ASC_NODE": 38.1782, "ARG_OF_PERICENTER": 310.8419, "MEAN_ANOMALY": 143.1183, "EPHEMERIS_TYPE": 0, "CLASSIFICATION_TYPE": "U", "NORAD_CAT_ID": 64202, "ELEMENT_SET_NO": 999, "REV_AT_EPOCH": 436, "BSTAR": 0, "MEAN_MOTION_DOT": -5e-07, "MEAN_MOTION_DDOT": 0}, "tle": {"line1": "1 64202U 25116A   25358.21277471 -.00000050  00000+0  00000+0 0  9997", "line2": "2 64202  55.1137  38.1782 0005965 310.8419 143.1183  2.00557520  4368"}}, "geometry": {"type": "Point", "coordinates": [52.03183657263903, 18.949542550573625]}}, {"type": "Feature", "properties": {"norad_id": 65590, "name": "COSMOS 2596 (708K)", "group": "gnss", "lat": 29.71255032772143, "lon": 125.42565376706641, "alt_km": 19160.646300300254, "timestamp": "2025-12-24T14:43:29.246318+00:00", "meta": {"OBJECT_NAME": "COSMOS 2596 (708K)", "OBJECT_ID": "2025-206B", "EPOCH": "2025-12-24T04:32:38.772960", "MEAN_MOTION": 2.13100301, "ECCENTRICITY": 0.00140894, "INCLINATION": 64.7381, "RA_OF_ASC_NODE": 321.0775, "ARG_OF_PERICENTER": 307.5412, "MEAN_ANOMALY": 233.8, "EPHEMERIS_TYPE": 0, "CLASSIFICATION_TYPE": "U", "NORAD_CAT_ID": 65590, "ELEMENT_SET_NO": 999, "REV_AT_EPOCH": 218, "BSTAR": 0, "MEAN_MOTION_DOT": -3.5e-07, "MEAN_MOTION_DDOT": 0}, "tle": {"line1": "1 65590U 25206B   25358.18933765 -.00000035  00000+0  00000+0 0  9992", "line2": "2 65590  64.7381 321.0775 0014089 307.5412 233.8000  2.13100301  2183"}}, "geometry": {"type": "Point", "coordinates": [125.42565376706641, 29.71255032772143]}}]}